STARLINK-2391
1 27810C 21018Z   21325.03717639  .00002041  00000-0  13671-3 0  3252
2 27810  53.0537 108.0703 0001303  79.8824 310.5596 15.06406876    12
